{"type": "FeatureCollection", "features": [{"type": "Feature", "properties": {"norad_id": 28054, "name": "DMSP 5D-3 F16 (USA 172)", "group": "weather", "lat": -49.60629200364308, "lon": 16.372342386474212, "alt_km": 846.4579756597168, "timestamp": "2025-12-14T03:55:52.436265+00:00", "meta": {"OBJECT_NAME": "DMSP 5D-3 F16 (USA 172)", "OBJECT_ID": "2003-048A", "EPOCH": "2025-12-13T07:50:43.671840", "MEAN_MOTION": 14.14424539, "ECCENTRICITY": 0.00064764, "INCLINATION": 99.0047, "RA_OF_ASC_NODE": 4.7885, "ARG_OF_PERICENTER": 319.0874, "MEAN_ANOMALY": 51.4437, "EPHEMERIS_TYPE": 0, "CLASSIFICATION_TYPE": "U", "NORAD_CAT_ID": 28054, "ELEMENT_SET_NO": 999, "REV_AT_EPOCH": 14321, "BSTAR": 0.00014209477, "MEAN_MOTION_DOT": 2.27e-06, "MEAN_MOTION_DDOT": 0}, "tle": {"line1": "1 28054U 03048A   25347.32689435  .00000227  00000+0  14209-3 0  9994", "line2": "2 28054  99.0047   4.7885 0006476 319.0874  51.4437 14.14424539143219"}}, "geometry": {"type": "Point", "coordinates": [16.372342386474212, -49.60629200364308]}}, {"type": "Feature", "properties": {"norad_id": 28912, "name": "METEOSAT-9 (MSG-2)", "group": "weather", "lat": 6.654453231921115, "lon": -171.9280174715789, "alt_km": 35775.7816996818, "timestamp": "2025-12-14T03:55:52.436314+00:00", "meta": {"OBJECT_NAME": "METEOSAT-9 (MSG-2)", "OBJECT_ID": "2005-049B", "EPOCH": "2025-12-12T20:32:45.552192", "MEAN_MOTION": 1.00276669, "ECCENTRICITY": 0.00035766, "INCLINATION": 8.9401, "RA_OF_ASC_NODE": 55.9765, "ARG_OF_PERICENTER": 190.0838, "MEAN_ANOMALY": 189.6047, "EPHEMERIS_TYPE": 0, "CLASSIFICATION_TYPE": "U", "NORAD_CAT_ID": 28912, "ELEMENT_SET_NO": 999, "REV_AT_EPOCH": 513, "BSTAR": 0, "MEAN_MOTION_DOT": 1.32e-06, "MEAN_MOTION_DDOT": 0}, "tle": {"line1": "1 28912U 05049B   25346.85608278  .00000132  00000+0  00000+0 0  9998", "line2": "2 28912   8.9401  55.9765 0003576 190.0838 189.6047  1.00276669  5134"}}, "geometry": {"type": "Point", "coordinates": [-171.9280174715789, 6.654453231921115]}}, {"type": "Feature", "properties": {"norad_id": 29522, "name": "DMSP 5D-3 F17 (USA 191)", "group": "weather", "lat": -70.59843630181747, "lon": 147.62555946645864, "alt_km": 844.0571070279029, "timestamp": "2025-12-14T03:55:52.436332+00:00", "meta": {"OBJECT_NAME": "DMSP 5D-3 F17 (USA 191)", "OBJECT_ID": "2006-050A", "EPOCH": "2025-12-13T06:22:30.260928", "MEAN_MOTION": 14.14919992, "ECCENTRICITY": 0.00094305, "INCLINATION": 98.7394, "RA_OF_ASC_NODE": 352.6438, "ARG_OF_PERICENTER": 223.2167, "MEAN_ANOMALY": 136.8267, "EPHEMERIS_TYPE": 0, "CLASSIFICATION_TYPE": "U", "NORAD_CAT_ID": 29522, "ELEMENT_SET_NO": 999, "REV_AT_EPOCH": 98612, "BSTAR": 0.00017158865, "MEAN_MOTION_DOT": 2.88e-06, "MEAN_MOTION_DDOT": 0}, "tle": {"line1": "1 29522U 06050A   25347.26562802  .00000288  00000+0  17159-3 0  9996", "line2": "2 29522  98.7394 352.6438 0009430 223.2167 136.8267 14.14919992986120"}}, "geometry": {"type": "Point", "coordinates": [147.62555946645864, -70.59843630181747]}}, {"type": "Feature", "properties": {"norad_id": 32958, "name": "FENGYUN 3A", "group": "weather", "lat": -9.888360747518682, "lon": -70.81543009165264, "alt_km": 827.0078161533274, "timestamp": "2025-12-14T03:55:52.436347+00:00", "meta": {"OBJECT_NAME": "FENGYUN 3A", "OBJECT_ID": "2008-026A", "EPOCH": "2025-12-13T07:40:41.304864", "MEAN_MOTION": 14.1951503, "ECCENTRICITY": 0.00078866, "INCLINATION": 98.6698, "RA_OF_ASC_NODE": 286.8345, "ARG_OF_PERICENTER": 308.6006, "MEAN_ANOMALY": 51.4464, "EPHEMERIS_TYPE": 0, "CLASSIFICATION_TYPE": "U", "NORAD_CAT_ID": 32958, "ELEMENT_SET_NO": 999, "REV_AT_EPOCH": 90903, "BSTAR": 0.00011796677, "MEAN_MOTION_DOT": 2.05e-06, "MEAN_MOTION_DDOT": 0}, "tle": {"line1": "1 32958U 08026A   25347.31992251  .00000205  00000+0  11797-3 0  9990", "line2": "2 32958  98.6698 286.8345 0007886 308.6006  51.4464 14.19515030909037"}}, "geometry": {"type": "Point", "coordinates": [-70.81543009165264, -9.888360747518682]}}, {"type": "Feature", "properties": {"norad_id": 35491, "name": "GOES 14", "group": "weather", "lat": -0.9582798464002762, "lon": 31.40301859525193, "alt_km": 35837.95442953895, "timestamp": "2025-12-14T03:55:52.436361+00:00", "meta": {"OBJECT_NAME": "GOES 14", "OBJECT_ID": "2009-033A", "EPOCH": "2025-12-13T06:17:59.074656", "MEAN_MOTION": 1.00096153, "ECCENTRICITY": 7.333e-05, "INCLINATION": 1.2041, "RA_OF_ASC_NODE": 85.3893, "ARG_OF_PERICENTER": 163.7878, "MEAN_ANOMALY": 177.4312, "EPHEMERIS_TYPE": 0, "CLASSIFICATION_TYPE": "U", "NORAD_CAT_ID": 35491, "ELEMENT_SET_NO": 999, "REV_AT_EPOCH": 472, "BSTAR": 0, "MEAN_MOTION_DOT": -1.6e-07, "MEAN_MOTION_DDOT": 0}, "tle": {"line1": "1 35491U 09033A   25347.26248929 -.00000016  00000+0  00000+0 0  9996", "line2": "2 35491   1.2041  85.3893 0000733 163.7878 177.4312  1.00096153  4724"}}, "geometry": {"type": "Point", "coordinates": [31.40301859525193, -0.9582798464002762]}}, {"type": "Feature", "properties": {"norad_id": 35951, "name": "DMSP 5D-3 F18 (USA 210)", "group": "weather", "lat": 59.46283503337035, "lon": 159.93150433712898, "alt_km": 832.9960876010864, "timestamp": "2025-12-14T03:55:52.436374+00:00", "meta": {"OBJECT_NAME": "DMSP 5D-3 F18 (USA 210)", "OBJECT_ID": "2009-057A", "EPOCH": "2025-12-13T05:18:18.580032", "MEAN_MOTION": 14.14769423, "ECCENTRICITY": 0.00120517, "INCLINATION": 98.8835, "RA_OF_ASC_NODE": 323.6194, "ARG_OF_PERICENTER": 61.487, "MEAN_ANOMALY": 298.7515, "EPHEMERIS_TYPE": 0, "CLASSIFICATION_TYPE": "U", "NORAD_CAT_ID": 35951, "ELEMENT_SET_NO": 999, "REV_AT_EPOCH": 83329, "BSTAR": 0.00021291234, "MEAN_MOTION_DOT": 3.66e-06, "MEAN_MOTION_DDOT": 0}, "tle": {"line1": "1 35951U 09057A   25347.22104838  .00000366  00000+0  21291-3 0  9995", "line2": "2 35951  98.8835 323.6194 0012051  61.4870 298.7515 14.14769423833292"}}, "geometry": {"type": "Point", "coordinates": [159.93150433712898, 59.46283503337035]}}, {"type": "Feature", "properties": {"norad_id": 36411, "name": "EWS-G2 (GOES 15)", "group": "weather", "lat": 0.7104711205130727, "lon": -156.60853893152535, "alt_km": 35773.45252937715, "timestamp": "2025-12-14T03:55:52.436387+00:00", "meta": {"OBJECT_NAME": "EWS-G2 (GOES 15)", "OBJECT_ID": "2010-008A", "EPOCH": "2025-12-13T05:10:49.301760", "MEAN_MOTION": 1.00269961, "ECCENTRICITY": 0.00057064, "INCLINATION": 0.8153, "RA_OF_ASC_NODE": 86.0659, "ARG_OF_PERICENTER": 174.865, "MEAN_ANOMALY": 320.3294, "EPHEMERIS_TYPE": 0, "CLASSIFICATION_TYPE": "U", "NORAD_CAT_ID": 36411, "ELEMENT_SET_NO": 999, "REV_AT_EPOCH": 5777, "BSTAR": 0, "MEAN_MOTION_DOT": 5.2e-07, "MEAN_MOTION_DDOT": 0}, "tle": {"line1": "1 36411U 10008A   25347.21584840  .00000052  00000+0  00000+0 0  9992", "line2": "2 36411   0.8153  86.0659 0005706 174.8650 320.3294  1.00269961 57770"}}, "geometry": {"type": "Point", "coordinates": [-156.60853893152535, 0.7104711205130727]}}, {"type": "Feature", "properties": {"norad_id": 36744, "name": "COMS 1", "group": "weather", "lat": -0.9374610603605623, "lon": -89.8454935289581, "alt_km": 35784.56124162879, "timestamp": "2025-12-14T03:55:52.436400+00:00", "meta": {"OBJECT_NAME": "COMS 1", "OBJECT_ID": "2010-032A", "EPOCH": "2025-12-12T15:21:38.695680", "MEAN_MOTION": 1.0026781, "ECCENTRICITY": 7.129e-05, "INCLINATION": 4.3408, "RA_OF_ASC_NODE": 78.0019, "ARG_OF_PERICENTER": 200.2431, "MEAN_ANOMALY": 161.9119, "EPHEMERIS_TYPE": 0, "CLASSIFICATION_TYPE": "U", "NORAD_CAT_ID": 36744, "ELEMENT_SET_NO": 999, "REV_AT_EPOCH": 4922, "BSTAR": 0, "MEAN_MOTION_DOT": -3.34e-06, "MEAN_MOTION_DDOT": 0}, "tle": {"line1": "1 36744U 10032A   25346.64003120 -.00000334  00000+0  00000+0 0  9995", "line2": "2 36744   4.3408  78.0019 0000712 200.2431 161.9119  1.00267810 49222"}}, "geometry": {"type": "Point", "coordinates": [-89.8454935289581, -0.9374610603605623]}}, {"type": "Feature", "properties": {"norad_id": 37214, "name": "FENGYUN 3B", "group": "weather", "lat": 79.24725132084205, "lon": -28.32981294742886, "alt_km": 835.6818442078693, "timestamp": "2025-12-14T03:55:52.436412+00:00", "meta": {"OBJECT_NAME": "FENGYUN 3B", "OBJECT_ID": "2010-059A", "EPOCH": "2025-12-13T07:27:17.720928", "MEAN_MOTION": 14.14790851, "ECCENTRICITY": 0.00220376, "INCLINATION": 98.991, "RA_OF_ASC_NODE": 27.2915, "ARG_OF_PERICENTER": 356.2037, "MEAN_ANOMALY": 64.6019, "EPHEMERIS_TYPE": 0, "CLASSIFICATION_TYPE": "U", "NORAD_CAT_ID": 37214, "ELEMENT_SET_NO": 999, "REV_AT_EPOCH": 78114, "BSTAR": 0.00017382104, "MEAN_MOTION_DOT": 2.9e-06, "MEAN_MOTION_DDOT": 0}, "tle": {"line1": "1 37214U 10059A   25347.31062177  .00000290  00000+0  17382-3 0  9994", "line2": "2 37214  98.9910  27.2915 0022037 356.2037  64.6019 14.14790851781148"}}, "geometry": {"type": "Point", "coordinates": [-28.32981294742886, 79.24725132084205]}}, {"type": "Feature", "properties": {"norad_id": 37849, "name": "SUOMI NPP", "group": "weather", "lat": -50.458022163003875, "lon": -63.72137430408988, "alt_km": 835.459948363864, "timestamp": "2025-12-14T03:55:52.436423+00:00", "meta": {"OBJECT_NAME": "SUOMI NPP", "OBJECT_ID": "2011-061A", "EPOCH": "2025-12-13T07:52:20.889984", "MEAN_MOTION": 14.19514539, "ECCENTRICITY": 0.0002266, "INCLINATION": 98.7773, "RA_OF_ASC_NODE": 284.6643, "ARG_OF_PERICENTER": 119.2463, "MEAN_ANOMALY": 240.894, "EPHEMERIS_TYPE": 0, "CLASSIFICATION_TYPE": "U", "NORAD_CAT_ID": 37849, "ELEMENT_SET_NO": 999, "REV_AT_EPOCH": 73207, "BSTAR": 0.0001014103, "MEAN_MOTION_DOT": 1.7e-06, "MEAN_MOTION_DDOT": 0}, "tle": {"line1": "1 37849U 11061A   25347.32801956  .00000170  00000+0  10141-3 0  9992", "line2": "2 37849  98.7773 284.6643 0002266 119.2463 240.8940 14.19514539732077"}}, "geometry": {"type": "Point", "coordinates": [-63.72137430408988, -50.458022163003875]}}]}